[{"OBJECT_NAME":"STARLINK-30092","OBJECT_ID":"2023-107L","EPOCH":"2026-03-09T02:06:44.569440","MEAN_MOTION":15.26757276,"ECCENTRICITY":0.00023812,"INCLINATION":43.0022,"RA_OF_ASC_NODE":339.6211,"ARG_OF_PERICENTER":265.1319,"MEAN_ANOMALY":94.926,"EPHEMERIS_TYPE":0,"CLASSIFICATION_TYPE":"U","NORAD_CAT_ID":57467,"ELEMENT_SET_NO":999,"REV_AT_EPOCH":14505,"BSTAR":-0.00015913035,"MEAN_MOTION_DOT":-4.529e-5,"MEAN_MOTION_DDOT":0},{"OBJECT_NAME":"FLOCK 4G-18","OBJECT_ID":"2025-009BZ","EPOCH":"2026-03-09T04:35:14.656704","MEAN_MOTION":15.27241676,"ECCENTRICITY":0.00041001,"INCLINATION":97.4054,"RA_OF_ASC_NODE":150.5008,"ARG_OF_PERICENTER":335.7331,"MEAN_ANOMALY":24.3715,"EPHEMERIS_TYPE":0,"CLASSIFICATION_TYPE":"U","NORAD_CAT_ID":62680,"ELEMENT_SET_NO":999,"REV_AT_EPOCH":12126,"BSTAR":0.0004431856,"MEAN_MOTION_DOT":0.00011766,"MEAN_MOTION_DDOT":0}]
